FALCONSAT-6             
1 43815U 18099BK  26068.72544389  .00005029  00000+0  19477-3 0  9998
2 43815  97.3865 145.8165 0014370 297.0944 181.0714 15.26532865398556
STARLINK-33549          
1 62289U 24237Y   26068.45321631  .00032138  00000+0  11712-2 0  9992
2 62289  43.0014 217.8770 0002339 162.9864 197.1066 15.27608759 71150
